From: horizons@ssd.jpl.nasa.gov (Horizons Ephemeris System)
Subject: [Horizons] SMALL BODY #C(500@10)_T(247P/LINEAR) (1/1)
Date: March 1, 2021 at 1:23:03 PM PST

Automated mail xmit by MAIL_REQUEST, PID= 2301 Mon Mar  1 13:23:03 2021
++++++++++++++++++++++++++++++++ (part 1 of 1)  +++++++++++++++++++++++++++++++
*******************************************************************************
JPL/HORIZONS                     247P/LINEAR               2021-Mar-01 13:23:03
Rec #:90001159 (+COV) Soln.date: 2020-Nov-11_11:13:09   # obs: 1333 (2002-2019)

IAU76/J2000 helio. ecliptic osc. elements (au, days, deg., period=Julian yrs):

 EPOCH=  2455786.5 ! 2011-Aug-13.0000000 (TDB)    RMSW= n.a.
  EC= .6256012422963348   QR= 1.484395891171481   TP= 2455565.6602737443
  OM= 54.12278166981239   W= 47.33817449695709    IN= 13.68221625841731
  A= 3.964745770728153    MA= 27.57136434108761   ADIST= 6.445095650284825
  PER= 7.8946200113165    N= .124847843           ANGMOM= .026721653
  DAN= 1.69461            DDN= 4.18894            L= 100.6381385
  B= 10.0170383           MOID= .53952301         TP= 2011-Jan-04.1602737443

Comet physical (GM= km^3/s^2; RAD= km):
  GM= n.a.                RAD= n.a.
  M1=  17.9     M2=  n.a.     k1=  4.5    k2= n.a.     PHCOF= n.a.

COMET comments 
1: soln ref.= JPL#21, data arc: 2002-11-05 to 2019-04-08
2: k1=4.5;
*******************************************************************************


*******************************************************************************
Ephemeris / MAIL_REQUEST Mon Mar  1 13:23:03 2021 Pasadena, USA  / Horizons
*******************************************************************************
Target body name: 247P/LINEAR                     {source: JPL#21}
Center body name: Sun (10)                        {source: DE431}
Center-site name: BODY CENTER
*******************************************************************************
Start time      : A.D. 1990-Jan-01 00:00:00.0000 TDB
Stop  time      : A.D. 2020-Dec-31 00:00:00.0000 TDB
Step-size       : 10080 minutes
*******************************************************************************
Center geodetic : 0.00000000,0.00000000,0.0000000 {E-lon(deg),Lat(deg),Alt(km)}
Center cylindric: 0.00000000,0.00000000,0.0000000 {E-lon(deg),Dxy(km),Dz(km)}
Center radii    : 696000.0 x 696000.0 x 696000.0 k{Equator, meridian, pole}    
Small perturbers: Yes                             {source: SB431-N16}
Output units    : AU-D
Output type     : GEOMETRIC cartesian states
Output format   : 6 (LT, range, and range-rate)
Reference frame : Ecliptic of J2000.0
*******************************************************************************
Initial IAU76/J2000 heliocentric ecliptic osculating elements (au, days, deg.):
 EPOCH=  2455786.5 ! 2011-Aug-13.0000000 (TDB)    RMSW= n.a.                  
  EC= .6256012422963348   QR= 1.484395891171481   TP= 2455565.6602737443      
  OM= 54.12278166981239   W= 47.33817449695709    IN= 13.68221625841731       
 Equivalent ICRF heliocentric equatorial cartesian coordinates (au, au/d):
  X=-2.460147276084830E+00  Y=-9.806122513634146E-01  Z=-3.850617165621351E-02
 VX=-3.170297503006400E-03 VY=-1.034746921702049E-02 VZ=-5.629037521027073E-03
Comet physical (GM= km^3/s^2; RAD= km):                                        
  GM= n.a.                RAD= n.a.                                           
  M1=  17.9     M2=  n.a.     k1=  4.5    k2= n.a.     PHCOF= n.a.            
*******************************************************************************
           JDTDB,            Calendar Date (TDB),                     LT,                     RG,                     RR,
**************************************************************************************************************************
$$SOE
2458392.500000000, A.D. 2018-Oct-01 00:00:00.0000,  9.461124742582623E-03,  1.638142968239635E+00, -4.464703851408886E-03,
2458399.500000000, A.D. 2018-Oct-08 00:00:00.0000,  9.288309886686660E-03,  1.608221003494877E+00, -4.078452891478982E-03,
2458406.500000000, A.D. 2018-Oct-15 00:00:00.0000,  9.131833238558120E-03,  1.581127911732564E+00, -3.656539455845727E-03,
2458413.500000000, A.D. 2018-Oct-22 00:00:00.0000,  8.993119778327665E-03,  1.557110420613989E+00, -3.199960067377443E-03,
2458420.500000000, A.D. 2018-Oct-29 00:00:00.0000,  8.873533320080819E-03,  1.536404667228026E+00, -2.710763306339315E-03,
2458427.500000000, A.D. 2018-Nov-05 00:00:00.0000,  8.774332022589518E-03,  1.519228495013086E+00, -2.192136513726919E-03,
2458434.500000000, A.D. 2018-Nov-12 00:00:00.0000,  8.696621762959976E-03,  1.505773380654510E+00, -1.648421307904149E-03,
2458441.500000000, A.D. 2018-Nov-19 00:00:00.0000,  8.641310633492150E-03,  1.496196555460006E+00, -1.085040217932190E-03,
2458448.500000000, A.D. 2018-Nov-26 00:00:00.0000,  8.609068358490742E-03,  1.490613978598305E+00, -5.083263140092152E-04,
2458455.500000000, A.D. 2018-Dec-03 00:00:00.0000,  8.600294499610769E-03,  1.489094832025396E+00,  7.473903430928313E-05,
2458462.500000000, A.D. 2018-Dec-10 00:00:00.0000,  8.615098772032896E-03,  1.491658112335935E+00,  6.568576480175402E-04,
2458469.500000000, A.D. 2018-Dec-17 00:00:00.0000,  8.653295548818033E-03,  1.498271679221737E+00,  1.230778647646556E-03,
2458476.500000000, A.D. 2018-Dec-24 00:00:00.0000,  8.714413131265926E-03,  1.508853860584616E+00,  1.789658600680914E-03,
2458483.500000000, A.D. 2018-Dec-31 00:00:00.0000,  8.797716831517859E-03,  1.523277449165142E+00,  2.327377991208779E-03,
2458490.500000000, A.D. 2019-Jan-07 00:00:00.0000,  8.902243377874448E-03,  1.541375659638760E+00,  2.838780661056161E-03,
2458497.500000000, A.D. 2019-Jan-14 00:00:00.0000,  9.026843129379715E-03,  1.562949437844441E+00,  3.319819174484920E-03,
2458504.500000000, A.D. 2019-Jan-21 00:00:00.0000,  9.170226210500161E-03,  1.587775448756741E+00,  3.767604225777582E-03,
2458511.500000000, A.D. 2019-Jan-28 00:00:00.0000,  9.331008868819646E-03,  1.615614103071857E+00,  4.180368937116142E-03,
2458518.500000000, A.D. 2019-Feb-04 00:00:00.0000,  9.507756986673976E-03,  1.646217091013608E+00,  4.557367441211850E-03,
2458525.500000000, A.D. 2019-Feb-11 00:00:00.0000,  9.699024548702065E-03,  1.679334042783459E+00,  4.898730614851418E-03,
2458532.500000000, A.D. 2019-Feb-18 00:00:00.0000,  9.903385785211747E-03,  1.714718094011782E+00,  5.205300892688791E-03,
2458539.500000000, A.D. 2019-Feb-25 00:00:00.0000,  1.011946053274726E-02,  1.752130276803996E+00,  5.478464699731710E-03,
2458546.500000000, A.D. 2019-Mar-04 00:00:00.0000,  1.034593303048317E-02,  1.791342774235299E+00,  5.719997344414289E-03,
2458553.500000000, A.D. 2019-Mar-11 00:00:00.0000,  1.058156483242470E-02,  1.832141156028834E+00,  5.931927189189688E-03,
2458560.500000000, A.D. 2019-Mar-18 00:00:00.0000,  1.082520261636250E-02,  1.874325730634311E+00,  6.116419480097717E-03,
2458567.500000000, A.D. 2019-Mar-25 00:00:00.0000,  1.107578177640160E-02,  1.917712167255101E+00,  6.275684567116796E-03,
2458574.500000000, A.D. 2019-Apr-01 00:00:00.0000,  1.133232679435713E-02,  1.962131560153417E+00,  6.411909562808668E-03,
2458581.500000000, A.D. 2019-Apr-08 00:00:00.0000,  1.159394924438008E-02,  2.007430083161975E+00,  6.527208978802382E-03,
2458588.500000000, A.D. 2019-Apr-15 00:00:00.0000,  1.185984413001356E-02,  2.053468355464943E+00,  6.623591092581090E-03,
2458595.500000000, A.D. 2019-Apr-22 00:00:00.0000,  1.212928512863811E-02,  2.100120618199171E+00,  6.702937030510541E-03,
2458602.500000000, A.D. 2019-Apr-29 00:00:00.0000,  1.240161919839870E-02,  2.147273800672550E+00,  6.766989692312961E-03,
2458609.500000000, A.D. 2019-May-06 00:00:00.0000,  1.267626089290418E-02,  2.194826535984733E+00,  6.817349978764022E-03,
2458616.500000000, A.D. 2019-May-13 00:00:00.0000,  1.295268663366950E-02,  2.242688169331249E+00,  6.855478129885991E-03,
2458623.500000000, A.D. 2019-May-20 00:00:00.0000,  1.323042910656816E-02,  2.290777787779323E+00,  6.882698226718263E-03,
2458630.500000000, A.D. 2019-May-27 00:00:00.0000,  1.350907188503299E-02,  2.339023289303944E+00,  6.900204980735534E-03,
2458637.500000000, A.D. 2019-Jun-03 00:00:00.0000,  1.378824439777213E-02,  2.387360511474908E+00,  6.909074134463409E-03,
2458644.500000000, A.D. 2019-Jun-10 00:00:00.0000,  1.406761734625749E-02,  2.435732438019524E+00,  6.910273129188868E-03,
2458651.500000000, A.D. 2019-Jun-17 00:00:00.0000,  1.434689848121461E-02,  2.484088467544520E+00,  6.904668585175083E-03,
2458658.500000000, A.D. 2019-Jun-24 00:00:00.0000,  1.462582869200604E-02,  2.532383736433751E+00,  6.893034798909419E-03,
2458665.500000000, A.D. 2019-Jul-01 00:00:00.0000,  1.490417846202810E-02,  2.580578505119181E+00,  6.876062984302144E-03,
2458672.500000000, A.D. 2019-Jul-08 00:00:00.0000,  1.518174468554934E-02,  2.628637606933541E+00,  6.854369826761649E-03,
2458679.500000000, A.D. 2019-Jul-15 00:00:00.0000,  1.545834781404882E-02,  2.676529954014130E+00,  6.828505247857269E-03,
2458686.500000000, A.D. 2019-Jul-22 00:00:00.0000,  1.573382930222419E-02,  2.724228095092807E+00,  6.798959477096130E-03,
2458693.500000000, A.D. 2019-Jul-29 00:00:00.0000,  1.600804932680172E-02,  2.771707820520204E+00,  6.766169481154050E-03,
2458700.500000000, A.D. 2019-Aug-05 00:00:00.0000,  1.628088475251253E-02,  2.818947810085423E+00,  6.730524755934078E-03,
2458707.500000000, A.D. 2019-Aug-12 00:00:00.0000,  1.655222731730461E-02,  2.865929318795234E+00,  6.692372329358869E-03,
2458714.500000000, A.D. 2019-Aug-19 00:00:00.0000,  1.682198199719813E-02,  2.912635893757555E+00,  6.652020607735696E-03,
2458721.500000000, A.D. 2019-Aug-26 00:00:00.0000,  1.709006551654025E-02,  2.959053116240062E+00,  6.609743205486065E-03,
2458728.500000000, A.D. 2019-Sep-02 00:00:00.0000,  1.735640506129641E-02,  3.005168378883493E+00,  6.565785096703030E-03,
2458735.500000000, A.D. 2019-Sep-09 00:00:00.0000,  1.762093721510529E-02,  3.050970701485258E+00,  6.520366420848346E-03,
